FLOCK 4G-6              
1 62660U 25009BD  26068.71061311  .00012261  00000+0  45910-3 0  9991
2 62660  97.3980 150.7943 0002380 348.2637  11.8546 15.27432125121307
STARLINK-34155          
1 64019U 25101AB  26068.66670139  .00035482  00000+0  12939-2 0  9996
2 64019  43.0017 358.2204 0001407 280.9514 314.4148 15.27548469  5878
